SatCatId,ObjectName,LaunchYear,OrbitalPeriod,LaunchMass,StatusCode,Inclination,Status,UcsData,OrbitClassEstimated,LaunchSiteCountry,Owner,UseType,Purpose,LaunchVehicleClass,TLE1,TLE2,MeanMotion,Eccentricity,OrbitClass
55065,FLOCK 4Y-12,2023,94.73,-1.0,+,97.47,Active,0,LEO,USA,USA,Unknown,Unknown,Falcon,1 55065U 23001BJ  23266.11312000  .00012173  00000+0  56514-3 0  9991,2 55065  97.4720 325.0992 0013958  37.0708 323.1488 15.20079315 39951,15.20079315,0.0013958,LEO
55066,FLOCK 4Y-6,2023,94.73,-1.0,+,97.47,Active,0,LEO,USA,USA,Unknown,Unknown,Falcon,1 55066U 23001BK  23266.70198891  .00011932  00000+0  55279-3 0  9996,2 55066  97.4711 325.6404 0014017  37.2960 322.9246 15.20156700 40040,15.201567,0.0014017,LEO
55067,NSL-2,2023,94.37,-1.0,+,97.47,Active,0,LEO,USA,Israel,Unknown,Unknown,Long March,1 55067U 23001BL  23266.40826533  .00037080  00000+0  14399-2 0  9994,2 55067  97.4712 326.4036 0012308  31.4099 328.7871 15.25914722 40063,15.25914722,0.0012308,LEO
55068,FLOCK 4Y-15,2023,94.73,-1.0,+,97.47,Active,0,LEO,USA,USA,Unknown,Unknown,Falcon,1 55068U 23001BM  23266.16446822  .00010456  00000+0  48558-3 0  9990,2 55068  97.4652 324.9591 0014639  32.7860 327.4280 15.20100639 39961,15.20100639,0.0014639,LEO
55069,FLOCK 4Y-9,2023,94.73,-1.0,+,97.47,Active,0,LEO,USA,USA,Unknown,Unknown,Falcon,1 55069U 23001BN  23266.17116718  .00010580  00000+0  49226-3 0  9991,2 55069  97.4697 325.0868 0014273  40.8152 319.4149 15.20038296 39962,15.20038296,0.0014273,LEO
55070,FLOCK 4Y-26,2023,94.72,-1.0,+,97.47,Active,0,LEO,USA,USA,Unknown,Unknown,Falcon,1 55070U 23001BP  23266.75389040  .00010570  00000+0  48922-3 0  9998,2 55070  97.4670 325.5677 0014348  28.9482 331.2546 15.20217638 40058,15.20217638,0.0014348,LEO
55071,FLOCK 4Y-8,2023,94.71,-1.0,+,97.47,Active,0,LEO,USA,USA,Unknown,Unknown,Falcon,1 55071U 23001BQ  23266.74503889  .00012518  00000+0  57359-3 0  9995,2 55071  97.4670 325.6096 0014557  31.9627 328.2488 15.20518968 40053,15.20518968,0.0014557,LEO
55072,SPHERE-1 EYE,2023,94.75,-1.0,+,97.47,Active,0,LEO,USA,Japan,Unknown,Unknown,Unknown,1 55072U 23001BR  23266.73083029  .00015235  00000+0  71229-3 0  9995,2 55072  97.4720 325.5010 0014234  33.6558 326.5578 15.19779864 40030,15.19779864,0.0014234,LEO
55073,TAUSAT-2,2023,94.71,-1.0,+,97.47,Active,0,LEO,USA,Israel,Unknown,Unknown,Minotaur,1 55073U 23001BS  23266.41947545  .00015383  00000+0  70404-3 0  9991,2 55073  97.4687 325.3448 0015059  14.1486 346.0168 15.20502507 40005,15.20502507,0.0015059,LEO
55074,FLOCK 4Y-2,2023,94.74,-1.0,+,97.47,Active,0,LEO,USA,USA,Unknown,Unknown,Falcon,1 55074U 23001BT  23266.17034277  .00011250  00000+0  52488-3 0  9995,2 55074  97.4697 325.1030 0014478  38.2301 321.9958 15.19923285 39969,15.19923285,0.0014478,LEO
55075,FLOCK 4Y-31,2023,94.59,-1.0,+,97.47,Active,0,LEO,USA,USA,Unknown,Unknown,Falcon,1 55075U 23001BU  23266.36089659  .00028353  00000+0  12243-2 0  9997,2 55075  97.4654 325.3246 0013873  30.4631 329.7408 15.22378833 40002,15.22378833,0.0013873,LEO
55076,YAM-5,2023,95.0,-1.0,+,97.47,Active,0,LEO,USA,USA,Unknown,Unknown,Falcon,1 55076U 23001BV  23266.17834153  .00006526  00000+0  34488-3 0  9998,2 55076  97.4682 323.9781 0015015  38.6356 321.5947 15.15731484 39896,15.15731484,0.0015015,LEO
55077,FLOCK 4Y-21,2023,94.74,-1.0,+,97.47,Active,0,LEO,USA,USA,Unknown,Unknown,Falcon,1 55077U 23001BW  23266.75890126  .00010520  00000+0  48958-3 0  9991,2 55077  97.4709 325.7164 0014531  35.2211 324.9982 15.20027976 40053,15.20027976,0.0014531,LEO
55078,FLOCK 4Y-36,2023,94.72,-1.0,+,97.47,Active,0,LEO,USA,USA,Unknown,Unknown,Falcon,1 55078U 23001BX  23266.15452218  .00011629  00000+0  53674-3 0  9994,2 55078  97.4681 325.0489 0014535  37.0435 323.1801 15.20285805 39964,15.20285805,0.0014535,LEO
55079,FLOCK 4Y-13,2023,94.74,-1.0,+,97.47,Active,0,LEO,USA,USA,Unknown,Unknown,Falcon,1 55079U 23001BY  23266.10518845  .00011481  00000+0  53465-3 0  9993,2 55079  97.4698 325.0259 0015046  36.5385 323.6873 15.19975298 39957,15.19975298,0.0015046,LEO
55080,FLOCK 4Y-23,2023,94.73,-1.0,+,97.47,Active,0,LEO,USA,USA,Unknown,Unknown,Falcon,1 55080U 23001BZ  23266.41669438  .00011352  00000+0  52690-3 0  9990,2 55080  97.4671 325.2820 0014944  32.2662 327.9484 15.20094425 40002,15.20094425,0.0014944,LEO
55082,FLOCK 4Y-34,2023,94.73,-1.0,+,97.47,Active,0,LEO,USA,USA,Unknown,Unknown,Falcon,1 55082U 23001CB  23266.47718644  .00010911  00000+0  50639-3 0  9993,2 55082  97.4676 325.3824 0014737  31.1122 329.0982 15.20110134 40016,15.20110134,0.0014737,LEO
55083,FLOCK 4Y-27,2023,94.71,-1.0,+,97.47,Active,0,LEO,USA,USA,Unknown,Unknown,Falcon,1 55083U 23001CC  23266.71418577  .00012101  00000+0  55479-3 0  9993,2 55083  97.4681 325.6705 0015029  31.4547 328.7584 15.20500196 40052,15.20500196,0.0015029,LEO
55084,GAMA-ALPHA,2023,94.85,-1.0,+,97.47,Active,0,LEO,USA,France,Unknown,Unknown,Unknown,1 55084U 23001CD  23266.71265357  .00011016  00000+0  53928-3 0  9991,2 55084  97.4661 325.0113 0014675  26.2946 333.9029 15.18256538 40012,15.18256538,0.0014675,LEO
55085,KSF3-D,2023,94.77,-1.0,+,97.47,Active,0,LEO,USA,Luxembourg,Unknown,Unknown,Unknown,1 55085U 23001CE  23266.73225915  .00007222  00000+0  34194-3 0  9998,2 55085  97.4669 325.4654 0015290  25.7416 334.4576 15.19542493 40040,15.19542493,0.001529,LEO
55086,KSF3-A,2023,94.77,-1.0,+,97.47,Active,0,LEO,USA,Luxembourg,Unknown,Unknown,Unknown,1 55086U 23001CF  23266.73249178  .00007870  00000+0  37260-3 0  9992,2 55086  97.4698 325.5627 0014714  28.3649 331.8383 15.19522006 40046,15.19522006,0.0014714,LEO
55087,SPACEBEE-167,2023,94.56,-1.0,+,97.47,Active,0,LEO,USA,USA,Unknown,Unknown,Falcon,1 55087U 23001CG  23266.71297714  .00023827  00000+0  10137-2 0  9993,2 55087  97.4666 325.9603 0013459  25.9339 334.2569 15.22925086 40079,15.22925086,0.0013459,LEO
55088,LEMUR-2-FUENTETAJA-01,2023,94.47,-1.0,+,97.47,Active,0,LEO,USA,USA,Unknown,Unknown,Falcon,1 55088U 23001CH  23266.40401778  .00032982  00000+0  13428-2 0  9995,2 55088  97.4732 326.1382 0012616  25.3556 334.8298 15.24353693 40043,15.24353693,0.0012616,LEO
55089,SPACEBEE-163,2023,94.49,-1.0,+,97.47,Active,0,LEO,USA,USA,Unknown,Unknown,Falcon,1 55089U 23001CJ  23266.17287564  .00029837  00000+0  12274-2 0  9998,2 55089  97.4654 325.5908 0013009  26.7666 333.4240 15.24021353 40001,15.24021353,0.0013009,LEO
55091,SPACEBEE-164,2023,94.53,-1.0,+,97.47,Active,0,LEO,USA,USA,Unknown,Unknown,Falcon,1 55091U 23001CL  23266.73094509  .00024736  00000+0  10369-2 0  9994,2 55091  97.4662 326.0793 0013610  24.8475 335.3414 15.23417557 40082,15.23417557,0.001361,LEO
55092,SPACEBEE-166,2023,94.44,-1.0,+,97.46,Active,0,LEO,USA,USA,Unknown,Unknown,Falcon,1 55092U 23001CM  23266.75340741  .00029576  00000+0  11888-2 0  9993,2 55092  97.4647 326.3393 0014730  24.1734 336.0191 15.24780641 40101,15.24780641,0.001473,LEO
55093,HUYGENS,2023,94.93,-1.0,+,97.47,Active,0,LEO,USA,Norway,Unknown,Unknown,Titan,1 55093U 23001CN  23266.74364596  .00011893  00000+0  60320-3 0  9996,2 55093  97.4683 324.8815 0016152  26.1630 334.0416 15.16976615 40007,15.16976615,0.0016152,LEO
55094,SPACEBEE-165,2023,94.5,-1.0,+,97.47,Active,0,LEO,USA,USA,Unknown,Unknown,Falcon,1 55094U 23001CP  23266.16874429  .00026495  00000+0  10991-2 0  9996,2 55094  97.4658 325.5965 0012832  26.8326 333.3572 15.23766307 40002,15.23766307,0.0012832,LEO
55095,SPACEBEE-162,2023,94.51,-1.0,+,97.47,Active,0,LEO,USA,USA,Unknown,Unknown,Falcon,1 55095U 23001CQ  23266.11979760  .00026868  00000+0  11204-2 0  9998,2 55095  97.4662 325.5178 0013827  25.7559 334.4364 15.23574786 39990,15.23574786,0.0013827,LEO
55096,SPACEBEE-161,2023,94.51,-1.0,+,97.47,Active,0,LEO,USA,USA,Unknown,Unknown,Falcon,1 55096U 23001CR  23266.11086915  .00026993  00000+0  11223-2 0  9990,2 55096  97.4661 325.5284 0013802  25.9473 334.2453 15.23672840 39995,15.2367284,0.0013802,LEO
55097,SPACEBEE-160,2023,94.5,-1.0,+,97.47,Active,0,LEO,USA,USA,Unknown,Unknown,Falcon,1 55097U 23001CS  23266.16938393  .00026093  00000+0  10831-2 0  9997,2 55097  97.4659 325.5994 0013865  26.0998 334.0935 15.23734679 40000,15.23734679,0.0013865,LEO
55098,BDSAT-2,2023,94.69,-1.0,+,97.47,Active,0,LEO,USA,Czech Republic,Unknown,Unknown,Falcon,1 55098U 23001CT  23266.15293868  .00016089  00000+0  73185-3 0  9994,2 55098  97.4721 325.2127 0015157  27.6178 332.5859 15.20702292 39963,15.20702292,0.0015157,LEO
55099,SPACEBEE-156,2023,94.5,-1.0,+,97.47,Active,0,LEO,USA,USA,Unknown,Unknown,Falcon,1 55099U 23001CU  23266.15976280  .00026223  00000+0  10845-2 0  9995,2 55099  97.4660 325.6144 0013840  25.7615 334.4309 15.23858996 40005,15.23858996,0.001384,LEO
55100,SPACEBEE-158,2023,94.52,-1.0,+,97.47,Active,0,LEO,USA,USA,Unknown,Unknown,Falcon,1 55100U 23001CV  23266.70449609  .00027327  00000+0  11391-2 0  9992,2 55100  97.4675 326.1272 0014286  24.4359 335.7552 15.23577778 40086,15.23577778,0.0014286,LEO
55101,SPACEBEE-159,2023,94.46,-1.0,+,97.47,Active,0,LEO,USA,USA,Unknown,Unknown,Falcon,1 55101U 23001CW  23266.16544138  .00028417  00000+0  11523-2 0  9994,2 55101  97.4661 325.7599 0014909  25.8559 334.3420 15.24491324 40013,15.24491324,0.0014909,LEO
55102,SPACEBEE-157,2023,94.44,-1.0,+,97.46,Active,0,LEO,USA,USA,Unknown,Unknown,Falcon,1 55102U 23001CX  23266.72363153  .00027205  00000+0  10949-2 0  9998,2 55102  97.4648 326.3500 0013356  25.4308 334.7584 15.24773266 40104,15.24773266,0.0013356,LEO
55103,KUWAITSAT-1,2023,94.92,-1.0,+,97.47,Active,0,LEO,USA,Unknown,Unknown,Unknown,Falcon,1 55103U 23001CY  23266.12369720  .00008218  00000+0  41644-3 0  9999,2 55103  97.4702 324.4335 0016554  28.1837 332.0288 15.17109557 39918,15.17109557,0.0016554,LEO
55104,SHARJAHSAT-1,2023,95.02,-1.0,+,97.47,Active,0,LEO,USA,UAE,Unknown,Unknown,Unknown,1 55104U 23001CZ  23266.70468934  .00008378  00000+0  44597-3 0  9998,2 55104  97.4689 324.2103 0012594  51.9238 308.3128 15.15412925 39950,15.15412925,0.0012594,LEO
